COMMENT,ORIGINATOR,NORAD_CAT_ID,OBJECT_NAME,OBJECT_TYPE,CLASSIFICATION_TYPE,INTLDES,EPOCH,EPOCH_MICROSECONDS,MEAN_MOTION,ECCENTRICITY,INCLINATION,RA_OF_ASC_NODE,ARG_OF_PERICENTER,MEAN_ANOMALY,EPHEMERIS_TYPE,ELEMENT_SET_NO,REV_AT_EPOCH,BSTAR,MEAN_MOTION_DOT,MEAN_MOTION_DDOT,FILE,TLE_LINE0,TLE_LINE1,TLE_LINE2,OBJECT_ID,OBJECT_NUMBER,SEMIMAJOR_AXIS,PERIOD,APOGEE,PERIGEE,DECAYED
"GENERATED VIA SPACETRACK.ORG API","18 SPCS","48890","SPACEBEE-104","PAYLOAD","U","21059M","2024-02-16 15:45:54","569376","15.83334166","0.0006715","97.5989","202.1212","296.2845","63.7733","0","999","14721","0.0024001","0.00550384","0","4190507","0 SPACEBEE-104","1 48890U 21059M   24047.65688159  .00550384  00000-0  24001-2 0  9995","2 48890  97.5989 202.1212 0006715 296.2845  63.7733 15.83334166147217","2021-059M","48890","6699.156","90.947","325.520","316.523","0"
"GENERATED VIA SPACETRACK.ORG API","18 SPCS","48890","SPACEBEE-104","PAYLOAD","U","21059M","2024-02-16 21:49:54","884064","15.83578379","0.0006924","97.599","202.4008","297.202","62.8542","0","999","14725","0.0022021","0.00508363","0","4190592","0 SPACEBEE-104","1 48890U 21059M   24047.90966301  .00508363  00000-0  22021-2 0  9991","2 48890  97.5990 202.4008 0006924 297.2020  62.8542 15.83578379147251","2021-059M","48890","6698.468","90.933","324.971","315.695","0"
"GENERATED VIA SPACETRACK.ORG API","18 SPCS","48890","SPACEBEE-104","PAYLOAD","U","21059M","2024-02-17 03:53:51","543168","15.83847604","0.0007011","97.5991","202.6812","296.4702","63.5848","0","999","14729","0.0023336","0.00548037","0","4190710","0 SPACEBEE-104","1 48890U 21059M   24048.16240212  .00548037  00000-0  23336-2 0  9998","2 48890  97.5991 202.6812 0007011 296.4702  63.5848 15.83847604147294","2021-059M","48890","6697.709","90.918","324.269","314.878","0"
"GENERATED VIA SPACETRACK.ORG API","18 SPCS","48890","SPACEBEE-104","PAYLOAD","U","21059M","2024-02-17 09:57:44","569152","15.84119303","0.000699","97.5991","202.9616","297.7442","62.3118","0","999","14733","0.0023067","0.00548711","0","4191255","0 SPACEBEE-104","1 48890U 21059M   24048.41509918  .00548711  00000-0  23067-2 0  9997","2 48890  97.5991 202.9616 0006990 297.7442  62.3118 15.84119303147330","2021-059M","48890","6696.943","90.902","323.489","314.127","0"
"GENERATED VIA SPACETRACK.ORG API","18 SPCS","48890","SPACEBEE-104","PAYLOAD","U","21059M","2024-02-17 22:05:19","789152","15.84653538","0.0007184","97.599","203.5221","297.8701","62.184","0","999","14741","0.0023855","0.00584314","0","4191569","0 SPACEBEE-104","1 48890U 21059M   24048.92036793  .00584314  00000-0  23855-2 0  9993","2 48890  97.5990 203.5221 0007184 297.8701  62.1840 15.84653538147415","2021-059M","48890","6695.437","90.872","322.112","312.492","0"
"GENERATED VIA SPACETRACK.ORG API","18 SPCS","48890","SPACEBEE-104","PAYLOAD","U","21059M","2024-02-17 23:36:15","614784","15.84726039","0.0007224","97.5988","203.592","297.6427","62.4108","0","999","14742","0.0024162","0.00594563","0","4191798","0 SPACEBEE-104","1 48890U 21059M   24048.98351406  .00594563  00000-0  24162-2 0  9999","2 48890  97.5988 203.5920 0007224 297.6427  62.4108 15.84726039147424","2021-059M","48890","6695.233","90.867","321.935","312.262","0"
"GENERATED VIA SPACETRACK.ORG API","18 SPCS","48890","SPACEBEE-104","PAYLOAD","U","21059M","2024-02-18 08:41:45","555648","15.85156357","0.0007277","97.5988","204.0124","297.8008","62.2524","0","999","14748","0.002453","0.00617673","0","4192133","0 SPACEBEE-104","1 48890U 21059M   24049.36233282  .00617673  00000-0  24530-2 0  9990","2 48890  97.5988 204.0124 0007277 297.8008  62.2524 15.85156357147488","2021-059M","48890","6694.022","90.843","320.758","311.015","0"
"GENERATED VIA SPACETRACK.ORG API","18 SPCS","48890","SPACEBEE-104","PAYLOAD","U","21059M","2024-02-18 22:19:43","484160","15.85784602","0.0007371","97.5981","204.6437","298.094","61.9585","0","999","14757","0.0021449","0.00552445","0","4192439","0 SPACEBEE-104","1 48890U 21059M   24049.93036440  .00552445  00000-0  21449-2 0  9991","2 48890  97.5981 204.6437 0007371 298.0940  61.9585 15.85784602147570","2021-059M","48890","6692.253","90.807","319.051","309.186","0"
"GENERATED VIA SPACETRACK.ORG API","18 SPCS","48890","SPACEBEE-104","PAYLOAD","U","21059M","2024-02-18 23:50:35","389824","15.85861518","0.0007394","97.5978","204.7138","297.9951","62.057","0","999","14758","0.0022425","0.00581624","0","4192660","0 SPACEBEE-104","1 48890U 21059M   24049.99346516  .00581624  00000-0  22425-2 0  9991","2 48890  97.5978 204.7138 0007394 297.9951  62.0570 15.85861518147589","2021-059M","48890","6692.037","90.802","318.850","308.954","0"
"GENERATED VIA SPACETRACK.ORG API","18 SPCS","48890","SPACEBEE-104","PAYLOAD","U","21059M","2024-02-19 08:55:43","608000","15.8617509","0.0007269","97.5975","205.1344","298.292","61.7617","0","999","14764","0.0019218","0.00501431","0","4192935","0 SPACEBEE-104","1 48890U 21059M   24050.37203250  .00501431  00000-0  19218-2 0  9996","2 48890  97.5975 205.1344 0007269 298.2920  61.7617 15.86175090147640","2021-059M","48890","6691.155","90.784","317.884","308.156","0"
"GENERATED VIA SPACETRACK.ORG API","18 SPCS","48890","SPACEBEE-104","PAYLOAD","U","21059M","2024-02-19 08:55:43","608000","15.8617509","0.0007269","97.5975","205.1344","298.292","61.7617","0","999","14764","0.0019218","0.00501431","0","4193039","0 SPACEBEE-104","1 48890U 21059M   24050.37203250  .00501431  00000-0  19218-2 0  9996","2 48890  97.5975 205.1344 0007269 298.2920  61.7617 15.86175090147640","2021-059M","48890","6691.155","90.784","317.884","308.156","0"
"GENERATED VIA SPACETRACK.ORG API","18 SPCS","48890","SPACEBEE-104","PAYLOAD","U","21059M","2024-02-19 16:29:54","199968","15.86528899","0.0007188","97.5969","205.4853","298.5072","61.5474","0","999","14769","0.0022168","0.00594496","0","4193200","0 SPACEBEE-104","1 48890U 21059M   24050.68743287  .00594496  00000-0  22168-2 0  9990","2 48890  97.5969 205.4853 0007188 298.5072  61.5474 15.86528899147695","2021-059M","48890","6690.160","90.764","316.834","307.216","0"
"GENERATED VIA SPACETRACK.ORG API","18 SPCS","48890","SPACEBEE-104","PAYLOAD","U","21059M","2024-02-19 22:33:10","763424","15.86762961","0.0007359","97.5967","205.7663","298.9304","61.1227","0","999","14773","0.0019153","0.00514891","0","4193358","0 SPACEBEE-104","1 48890U 21059M   24050.93970791  .00514891  00000-0  19153-2 0  9991","2 48890  97.5967 205.7663 0007359 298.9304  61.1227 15.86762961147734","2021-059M","48890","6689.502","90.751","316.290","306.444","0"
"GENERATED VIA SPACETRACK.ORG API","18 SPCS","48890","SPACEBEE-104","PAYLOAD","U","21059M","2024-02-19 22:33:10","763424","15.86762961","0.0007359","97.5967","205.7663","298.9304","61.1227","0","999","14773","0.0019153","0.00514891","0","4193626","0 SPACEBEE-104","1 48890U 21059M   24050.93970791  .00514891  00000-0  19153-2 0  9991","2 48890  97.5967 205.7663 0007359 298.9304  61.1227 15.86762961147734","2021-059M","48890","6689.502","90.751","316.290","306.444","0"
"GENERATED VIA SPACETRACK.ORG API","18 SPCS","48890","SPACEBEE-104","PAYLOAD","U","21059M","2024-02-20 09:08:47","168736","15.87160896","0.0007361","97.5963","206.2577","298.542","61.5109","0","999","14780","0.0018041","0.00493242","0","4193866","0 SPACEBEE-104","1 48890U 21059M   24051.38110149  .00493242  00000-0  18041-2 0  9995","2 48890  97.5963 206.2577 0007361 298.5420  61.5109 15.87160896147809","2021-059M","48890","6688.384","90.728","315.172","305.326","0"
"GENERATED VIA SPACETRACK.ORG API","18 SPCS","48890","SPACEBEE-104","PAYLOAD","U","21059M","2024-02-20 16:42:40","357152","15.87546633","0.0007476","97.5962","206.6091","298.5764","61.4754","0","999","14785","0.0021715","0.00613115","0","4194144","0 SPACEBEE-104","1 48890U 21059M   24051.69630043  .00613115  00000-0  21715-2 0  9994","2 48890  97.5962 206.6091 0007476 298.5764  61.4754 15.87546633147858","2021-059M","48890","6687.301","90.706","314.165","304.166","0"
"GENERATED VIA SPACETRACK.ORG API","18 SPCS","48890","SPACEBEE-104","PAYLOAD","U","21059M","2024-02-20 22:45:42","369120","15.87837025","0.0007589","97.5959","206.8901","299.2241","60.8271","0","999","14789","0.0020645","0.00589705","0","4194241","0 SPACEBEE-104","1 48890U 21059M   24051.94840705  .00589705  00000-0  20645-2 0  9998","2 48890  97.5959 206.8901 0007589 299.2241  60.8271 15.87837025147898","2021-059M","48890","6686.485","90.689","313.425","303.276","0"
"GENERATED VIA SPACETRACK.ORG API","18 SPCS","48890","SPACEBEE-104","PAYLOAD","U","21059M","2024-02-21 09:20:50","772192","15.88374089","0.0007647","97.5958","207.382","299.2878","60.7628","0","999","14796","0.0020538","0.00563122","0.00012155","4194679","0 SPACEBEE-104","1 48890U 21059M   24052.38947653  .00563122  12155-3  20538-2 0  9990","2 48890  97.5958 207.3820 0007647 299.2878  60.7628 15.88374089147964","2021-059M","48890","6684.978","90.659","311.955","301.731","0"
"GENERATED VIA SPACETRACK.ORG API","18 SPCS","48890","SPACEBEE-104","PAYLOAD","U","21059M","2024-02-21 09:20:50","772192","15.88374089","0.0007647","97.5958","207.382","299.2878","60.7628","0","999","14796","0.0020538","0.00563122","0.00012155","4194887","0 SPACEBEE-104","1 48890U 21059M   24052.38947653  .00563122  12155-3  20538-2 0  9990","2 48890  97.5958 207.3820 0007647 299.2878  60.7628 15.88374089147964","2021-059M","48890","6684.978","90.659","311.955","301.731","0"
"GENERATED VIA SPACETRACK.ORG API","18 SPCS","48890","SPACEBEE-104","PAYLOAD","U","21059M","2024-02-21 21:26:28","405248","15.88944306","0.0007886","97.5953","207.9442","299.5052","60.5432","0","999","14804","0.0019774","0.00557826","0.00012004","4195143","0 SPACEBEE-104","1 48890U 21059M   24052.89338432  .00557826  12004-3  19774-2 0  9992","2 48890  97.5953 207.9442 0007886 299.5052  60.5432 15.88944306148043","2021-059M","48890","6683.379","90.626","310.514","299.973","0"
